*******************************************************************************
 Revised: September 10, 2019           Uranus                               799
 
 PHYSICAL DATA (updated 2018-Aug-15):
  Mass x10^24 (kg)      = 86.813          Density (g/cm^3)       =  1.271
  Equat. radius (1 bar) = 25559+-4 km     Polar radius (km)      = 24973+-20
  Vol. Mean Radius (km) = 25362+-12       Flattening             =  0.02293
  Geometric Albedo      = 0.51
  Sid. rot. period (III)= 17.24+-0.01 h   Sid. rot. rate (rad/s) = -0.000101237
  Mean solar day, h     =~17.24           Rocky core mass (Mc/M) =  0.0012        
  GM (km^3/s^2)         = 5793951.322     GM 1-sigma (km^3/s^2)  = +-4.3 
  Equ. grav, ge (m/s^2) =  8.87           Pol. grav, gp (m/s^2)  =   9.19+-0.02
  Visual magnitude V(1,0)= -7.11
  Vis. mag. (opposition)=  +5.52          Obliquity to orbit     = 97.77 deg
  Sidereal orbit period = 84.0120465 y    Sidereal orbit period  = 30685.4 d
  Mean daily motion     = 0.01176904 dg/d Mean orbit velocity    =  6.8 km/s
  Atmos. temp. (1 bar)  =  76+-2 K        Escape speed, km/s     =  21.3           
  Aroche(ice)/Rp        =  2.20           Hill's sphere rad., Rp = 2700
                                 Perihelion   Aphelion    Mean
  Solar Constant (W/m^2)         4.09         3.39        3.71
  Maximum Planetary IR (W/m^2)   0.72         0.55        0.63
  Minimum Planetary IR (W/m^2)   0.72         0.55        0.63
*******************************************************************************
 
 
*******************************************************************************
Ephemeris / WWW_USER Sat Mar 13 00:17:19 2021 Pasadena, USA      / Horizons
*******************************************************************************
Target body name: Uranus (799)                    {source: ura111}
Center body name: Solar System Barycenter (0)     {source: DE431mx}
Center-site name: BODY CENTER
*******************************************************************************
Start time      : A.D. 2020-Apr-01 00:00:00.0000 TDB
Stop  time      : A.D. 2021-Apr-01 00:00:00.0000 TDB
Step-size       : 60 minutes
*******************************************************************************
Center geodetic : 0.00000000,0.00000000,0.0000000 {E-lon(deg),Lat(deg),Alt(km)}
Center cylindric: 0.00000000,0.00000000,0.0000000 {E-lon(deg),Dxy(km),Dz(km)}
Center radii    : (undefined)                                                  
Output units    : KM-S
Output type     : GEOMETRIC cartesian states
Output format   : 3 (position, velocity, LT, range, range-rate)
Reference frame : Ecliptic of J2000.0
*******************************************************************************
JDTDB
   X     Y     Z
   VX    VY    VZ
   LT    RG    RR
*******************************************************************************
$$SOE
2459070.500000000 = A.D. 2020-Aug-09 00:00:00.0000 TDB 
 X = 2.348835459592129E+09 Y = 1.802147621146498E+09 Z =-2.373623866421366E+07
 VX=-4.195526075027131E+00 VY= 5.085620202500498E+00 VZ= 7.319883595222354E-02
 LT= 9.875597250244775E+03 RG= 2.960629573868922E+09 RR=-2.334974756105650E-01
2459070.541666667 = A.D. 2020-Aug-09 01:00:00.0000 TDB 
 X = 2.348820355630996E+09 Y = 1.802165929318183E+09 Z =-2.373597513949728E+07
 VX=-4.195563396938398E+00 VY= 5.085586263747688E+00 VZ= 7.320366527736066E-02
 LT= 9.875594446350098E+03 RG= 2.960628733282445E+09 RR=-2.334949896089497E-01
2459070.583333333 = A.D. 2020-Aug-09 02:00:00.0000 TDB 
 X = 2.348805251535992E+09 Y = 1.802184237367417E+09 Z =-2.373571159869075E+07
 VX=-4.195600452351818E+00 VY= 5.085552175204816E+00 VZ= 7.320777171726434E-02
 LT= 9.875591642486046E+03 RG= 2.960627892705149E+09 RR=-2.334923776225263E-01
2459070.625000000 = A.D. 2020-Aug-09 03:00:00.0000 TDB 
 X = 2.348790147308018E+09 Y = 1.802202545293674E+09 Z =-2.373544804443645E+07
 VX=-4.195637276071323E+00 VY= 5.085517944471827E+00 VZ= 7.321113175311389E-02
 LT= 9.875588838654006E+03 RG= 2.960627052137450E+09 RR=-2.334896624570537E-01
2459070.666666667 = A.D. 2020-Aug-09 04:00:00.0000 TDB 
 X = 2.348775042947820E+09 Y = 1.802220853096458E+09 Z =-2.373518447947049E+07
 VX=-4.195673920535633E+00 VY= 5.085483580809701E+00 VZ= 7.321371814079392E-02
 LT= 9.875586034855021E+03 RG= 2.960626211579660E+09 RR=-2.334868798665098E-01
2459070.708333333 = A.D. 2020-Aug-09 05:00:00.0000 TDB 
 X = 2.348759938455928E+09 Y = 1.802239160775310E+09 Z =-2.373492090662587E+07
 VX=-4.195710450586702E+00 VY= 5.085449095191598E+00 VZ= 7.321550469470739E-02
 LT= 9.875583231089635E+03 RG= 2.960625371031943E+09 RR=-2.334840744093803E-01
2459070.750000000 = A.D. 2020-Aug-09 06:00:00.0000 TDB 
 X = 2.348744833832625E+09 Y = 1.802257468329812E+09 Z =-2.373465732882309E+07
 VX=-4.195746939735209E+00 VY= 5.085414500268659E+00 VZ= 7.321646941642257E-02
 LT= 9.875580427357821E+03 RG= 2.960624530494292E+09 RR=-2.334812965314530E-01
2459070.791666667 = A.D. 2020-Aug-09 07:00:00.0000 TDB 
 X = 2.348729729077916E+09 Y = 1.802275775759598E+09 Z =-2.373439374905145E+07
 VX=-4.195783467514908E+00 VY= 5.085379810296501E+00 VZ= 7.321659652435963E-02
 LT= 9.875577623658932E+03 RG= 2.960623689966510E+09 RR=-2.334786005276681E-01
2459070.833333333 = A.D. 2020-Aug-09 08:00:00.0000 TDB 
 X = 2.348714624191512E+09 Y = 1.802294083064351E+09 Z =-2.373413017034352E+07
 VX=-4.195820117591179E+00 VY= 5.085345041048321E+00 VZ= 7.321587778149929E-02
 LT= 9.875574819991642E+03 RG= 2.960622849448202E+09 RR=-2.334760431049013E-01
2459070.875000000 = A.D. 2020-Aug-09 09:00:00.0000 TDB 
 X = 2.348699519172819E+09 Y = 1.802312390243818E+09 Z =-2.373386659574652E+07
 VX=-4.195856976355890E+00 VY= 5.085310209726173E+00 VZ= 7.321431339250495E-02
 LT= 9.875572016353939E+03 RG= 2.960622008938764E+09 RR=-2.334736823282795E-01
2459070.916666667 = A.D. 2020-Aug-09 10:00:00.0000 TDB 
 X = 2.348684414020926E+09 Y = 1.802330697297809E+09 Z =-2.373360302829111E+07
 VX=-4.195894131800669E+00 VY= 5.085275334872054E+00 VZ= 7.321191264468951E-02
 LT= 9.875569212743112E+03 RG= 2.960621168437383E+09 RR=-2.334715767864609E-01
2459070.958333333 = A.D. 2020-Aug-09 11:00:00.0000 TDB 
 X = 2.348669308734607E+09 Y = 1.802349004226201E+09 Z =-2.373333947095704E+07
 VX=-4.195931672513594E+00 VY= 5.085240436274490E+00 VZ= 7.320869439421474E-02
 LT= 9.875566409155745E+03 RG= 2.960620327943034E+09 RR=-2.334697848563823E-01
2459071.000000000 = A.D. 2020-Aug-09 12:00:00.0000 TDB 
 X = 2.348654203312316E+09 Y = 1.802367311028946E+09 Z =-2.373307592663825E+07
 VX=-4.195969686690392E+00 VY= 5.085205534862933E+00 VZ= 7.320468744589825E-02
 LT= 9.875563605587724E+03 RG= 2.960619487454486E+09 RR=-2.334683639861022E-01
2459071.041666667 = A.D. 2020-Aug-09 13:00:00.0000 TDB 
 X = 2.348639097752191E+09 Y = 1.802385617706075E+09 Z =-2.373281239810741E+07
 VX=-4.196008261090571E+00 VY= 5.085170652581394E+00 VZ= 7.319993083824161E-02
 LT= 9.875560802034257E+03 RG= 2.960618646970301E+09 RR=-2.334673699458904E-01
2459071.083333333 = A.D. 2020-Aug-09 14:00:00.0000 TDB 
 X = 2.348623992052063E+09 Y = 1.802403924257695E+09 Z =-2.373254888797700E+07
 VX=-4.196047479901851E+00 VY= 5.085135812233227E+00 VZ= 7.319447402182355E-02
 LT= 9.875557998489898E+03 RG= 2.960617806488846E+09 RR=-2.334668560233251E-01
2459071.125000000 = A.D. 2020-Aug-09 15:00:00.0000 TDB 
 X = 2.348608886209466E+09 Y = 1.802422230684001E+09 Z =-2.373228539866316E+07
 VX=-4.196087423503074E+00 VY= 5.085101037290677E+00 VZ= 7.318837690614077E-02
 LT= 9.875555194948573E+03 RG= 2.960616966008302E+09 RR=-2.334668721582851E-01
2459071.166666667 = A.D. 2020-Aug-09 16:00:00.0000 TDB 
 X = 2.348593780221653E+09 Y = 1.802440536985271E+09 Z =-2.373202193234766E+07
 VX=-4.196128167136940E+00 VY= 5.085066351665199E+00 VZ= 7.318170974501337E-02
 LT= 9.875552391403640E+03 RG= 2.960616125526675E+09 RR=-2.334674640290626E-01
2459071.208333333 = A.D. 2020-Aug-09 17:00:00.0000 TDB 
 X = 2.348578674085619E+09 Y = 1.802458843161869E+09 Z =-2.373175849094093E+07
 VX=-4.196169779519844E+00 VY= 5.085031779437257E+00 VZ= 7.317455283172203E-02
 LT= 9.875549587847941E+03 RG= 2.960615285041821E+09 RR=-2.334686721117718E-01
2459071.250000000 = A.D. 2020-Aug-09 18:00:00.0000 TDB 
 X = 2.348563567798125E+09 Y = 1.802477149214248E+09 Z =-2.373149507604742E+07
 VX=-4.196212321427272E+00 VY= 5.084997344547165E+00 VZ= 7.316699598040710E-02
 LT= 9.875546784273856E+03 RG= 2.960614444551455E+09 RR=-2.334705307424287E-01
2459071.291666667 = A.D. 2020-Aug-09 19:00:00.0000 TDB 
 X = 2.348548461355727E+09 Y = 1.802495455142943E+09 Z =-2.373123168893194E+07
 VX=-4.196255844300169E+00 VY= 5.084963070451177E+00 VZ= 7.315913777845284E-02
 LT= 9.875543980673408E+03 RG= 2.960613604053185E+09 RR=-2.334730672150746E-01
2459071.333333333 = A.D. 2020-Aug-09 20:00:00.0000 TDB 
 X = 2.348533354754819E+09 Y = 1.802513760948575E+09 Z =-2.373096833048975E+07
 VX=-4.196300388920968E+00 VY= 5.084928979749449E+00 VZ= 7.315108460437636E-02
 LT= 9.875541177038329E+03 RG= 2.960612763544534E+09 RR=-2.334763009504337E-01
2459071.375000000 = A.D. 2020-Aug-09 21:00:00.0000 TDB 
 X = 2.348518247991666E+09 Y = 1.802532066631843E+09 Z =-2.373070500122142E+07
 VX=-4.196345984207968E+00 VY= 5.084895093794592E+00 VZ= 7.314294941616772E-02
 LT= 9.875538373360178E+03 RG= 2.960611923022969E+09 RR=-2.334802427685231E-01
2459071.416666667 = A.D. 2020-Aug-09 22:00:00.0000 TDB 
 X = 2.348503141062452E+09 Y = 1.802550372193520E+09 Z =-2.373044170121074E+07
 VX=-4.196392646174187E+00 VY= 5.084861432290905E+00 VZ= 7.313485032533684E-02
 LT= 9.875535569630421E+03 RG= 2.960611082485934E+09 RR=-2.334848942957256E-01
2459071.458333333 = A.D. 2020-Aug-09 23:00:00.0000 TDB 
 X = 2.348488033963330E+09 Y = 1.802568677634446E+09 Z =-2.373017843010974E+07
 VX=-4.196440377091949E+00 VY= 5.084828012895642E+00 VZ= 7.312690898140373E-02
 LT= 9.875532765840586E+03 RG= 2.960610241930887E+09 RR=-2.334902475323631E-01
